NORAD_CAT_ID,OBJECT_NAME,OBJECT_TYPE,EPOCH,MEAN_MOTION,ECCENTRICITY,INCLINATION,RA_OF_ASC_NODE,ARG_OF_PERICENTER,MEAN_ANOMALY,BSTAR,MEAN_MOTION_DOT,MEAN_MOTION_DDOT,TLE_LINE0,TLE_LINE1,TLE_LINE2,SEMIMAJOR_AXIS,PERIOD,APOGEE,PERIGEE,DECAYED
52575.0,STARLINK-3920,PAYLOAD,2023-01-29 15:52:43,15.08844451,0.0001545,53.2168,174.4588,94.2906,265.8263,4.0694e-05,3.6e-06,0.0,0 STARLINK-3920,1 52575U 22051AR  23029.66161867  .00000360  00000-0  40694-4 0  9997,2 52575  53.2168 174.4588 0001545  94.2906 265.8263 15.08844451 40234,6917.867,95.437,540.801,538.663,0.0
52575.0,STARLINK-3920,PAYLOAD,2023-01-30 12:32:44,15.08842526,0.0001491,53.2168,170.5945,91.9432,268.1731,8.114e-05,1.004e-05,0.0,0 STARLINK-3920,1 52575U 22051AR  23030.52274077  .00001004  00000-0  81140-4 0  9999,2 52575  53.2168 170.5945 0001491  91.9432 268.1731 15.08842526 40367,6917.873,95.437,540.769,538.706,0.0
52575.0,STARLINK-3920,PAYLOAD,2023-01-31 06:01:59,15.08839814,0.0001505,53.2171,167.3228,97.5299,262.5864,0.00010788,1.429e-05,0.0,0 STARLINK-3920,1 52575U 22051AR  23031.25138181  .00001429  00000-0  10788-3 0  9995,2 52575  53.2171 167.3228 0001505  97.5299 262.5864 15.08839814 40549,6917.881,95.438,540.787,538.705,0.0
52575.0,STARLINK-3920,PAYLOAD,2023-01-31 12:23:31,15.08839109,0.0001459,53.2169,166.1332,96.7323,263.3835,0.00012048,1.63e-05,0.0,0 STARLINK-3920,1 52575U 22051AR  23031.51634225  .00001630  00000-0  12048-3 0  9999,2 52575  53.2169 166.1332 0001459  96.7323 263.3835 15.08839109 40517,6917.883,95.438,540.757,538.739,0.0
52575.0,STARLINK-3920,PAYLOAD,2023-02-01 10:38:55,15.08843953,0.000146,53.217,161.97,95.5644,264.5514,0.00012463,1.696e-05,0.0,0 STARLINK-3920,1 52575U 22051AR  23032.44369891  .00001696  00000-0  12463-3 0  9999,2 52575  53.2170 161.9700 0001460  95.5644 264.5514 15.08843953 40728,6917.868,95.437,540.743,538.723,0.0
52575.0,STARLINK-3920,PAYLOAD,2023-02-01 12:14:18,15.08844872,0.0001461,53.217,161.6726,96.0375,264.0783,0.00013297,1.829e-05,0.0,0 STARLINK-3920,1 52575U 22051AR  23032.50993824  .00001829  00000-0  13297-3 0  9999,2 52575  53.2170 161.6726 0001461  96.0375 264.0783 15.08844872 40668,6917.865,95.437,540.741,538.72,0.0
52575.0,STARLINK-3920,PAYLOAD,2023-02-02 12:05:06,15.08833183,0.0001288,53.2172,157.2129,92.7175,267.3964,-1.6696e-05,-5.54e-06,0.0,0 STARLINK-3920,1 52575U 22051AR  23033.50354462 -.00000554  00000-0 -16696-4 0  9992,2 52575  53.2172 157.2129 0001288  92.7175 267.3964 15.08833183 40813,6917.901,95.438,540.657,538.875,0.0
52575.0,STARLINK-3920,PAYLOAD,2023-02-02 16:51:15,15.08841037,0.0001294,53.2171,156.3211,89.8938,270.2202,8.9912e-05,1.143e-05,0.0,0 STARLINK-3920,1 52575U 22051AR  23033.70226133  .00001143  00000-0  89912-4 0  9991,2 52575  53.2171 156.3211 0001294  89.8938 270.2202 15.08841037 40911,6917.877,95.437,540.637,538.847,0.0
52575.0,STARLINK-3920,PAYLOAD,2023-02-03 05:34:20,15.08831323,0.0001247,53.217,153.9424,89.347,270.7665,-3.3604e-05,-8.22e-06,0.0,0 STARLINK-3920,1 52575U 22051AR  23034.23218703 -.00000822  00000-0 -33604-4 0  9996,2 52575  53.2170 153.9424 0001247  89.3470 270.7665 15.08831323 40996,6917.907,95.438,540.635,538.909,0.0
52575.0,STARLINK-3920,PAYLOAD,2023-02-03 10:20:30,15.08835033,0.0001266,53.217,153.0511,83.2263,276.8873,4.2692e-05,3.92e-06,0.0,0 STARLINK-3920,1 52575U 22051AR  23034.43090772  .00000392  00000-0  42692-4 0  9999,2 52575  53.2170 153.0511 0001266  83.2263 276.8873 15.08835033 40954,6917.896,95.438,540.636,538.885,0.0
52575.0,STARLINK-3920,PAYLOAD,2023-02-03 16:42:02,15.08842132,0.0001243,53.2171,151.8616,84.3775,275.7359,0.0001844,2.648e-05,0.0,0 STARLINK-3920,1 52575U 22051AR  23034.69586568  .00002648  00000-0  18440-3 0  9999,2 52575  53.2171 151.8616 0001243  84.3775 275.7359 15.08842132 41060,6917.874,95.437,540.599,538.879,0.0
52575.0,STARLINK-3920,PAYLOAD,2023-02-04 13:22:03,15.08853841,0.0001136,53.2172,147.996,96.7593,263.3528,0.00060487,9.355e-05,0.0,0 STARLINK-3920,1 52575U 22051AR  23035.55698425  .00009355  00000-0  60487-3 0  9991,2 52575  53.2172 147.9960 0001136  96.7593 263.3528 15.08853841 41122,6917.838,95.437,540.489,538.917,0.0
52575.0,STARLINK-3920,PAYLOAD,2023-02-04 16:32:49,15.08862495,0.0001152,53.217,147.4013,96.6508,263.4615,0.00086744,0.00013553,0.0,0 STARLINK-3920,1 52575U 22051AR  23035.68946186  .00013553  00000-0  86744-3 0  9994,2 52575  53.2170 147.4013 0001152  96.6508 263.4615 15.08862495 41142,6917.812,95.436,540.474,538.88,0.0
52575.0,STARLINK-3920,PAYLOAD,2023-02-05 03:40:31,15.08834677,0.0001251,53.217,145.3207,94.4284,265.6851,-0.00014707,-2.627e-05,0.0,0 STARLINK-3920,1 52575U 22051AR  23036.15314612 -.00002627  00000-0 -14707-3 0  9992,2 52575  53.2170 145.3207 0001251  94.4284 265.6851 15.08834677 41283,6917.897,95.438,540.627,538.896,0.0
52575.0,STARLINK-3920,PAYLOAD,2023-02-05 13:12:50,15.08839745,0.0001158,53.2175,143.5358,92.2382,267.8743,9.4733e-05,1.22e-05,0.0,0 STARLINK-3920,1 52575U 22051AR  23036.55058795  .00001220  00000-0  94733-4 0  9997,2 52575  53.2175 143.5358 0001158  92.2382 267.8743 15.08839745 41270,6917.881,95.438,540.547,538.945,0.0
52575.0,STARLINK-3920,PAYLOAD,2023-02-05 14:48:13,15.0884187,0.0001156,53.2175,143.2384,92.0202,268.0922,0.00014653,2.045e-05,0.0,0 STARLINK-3920,1 52575U 22051AR  23036.61682732  .00002045  00000-0  14653-3 0  9996,2 52575  53.2175 143.2384 0001156  92.0202 268.0922 15.08841870 41288,6917.875,95.437,540.539,538.94,0.0
52575.0,STARLINK-3920,PAYLOAD,2023-02-06 06:42:05,15.08843294,0.0001219,53.2175,140.2653,87.114,272.9992,0.00021716,3.17e-05,0.0,0 STARLINK-3920,1 52575U 22051AR  23037.27922834  .00003170  00000-0  21716-3 0  9997,2 52575  53.2175 140.2653 0001219  87.1140 272.9992 15.08843294 41452,6917.87,95.437,540.579,538.892,0.0
52575.0,STARLINK-3920,PAYLOAD,2023-02-06 13:03:37,15.08855856,0.0001286,53.2173,139.0762,83.409,276.7049,0.00075093,0.00011688,0.0,0 STARLINK-3920,1 52575U 22051AR  23037.54418606  .00011688  00000-0  75093-3 0  9994,2 52575  53.2173 139.0762 0001286  83.4090 276.7049 15.08855856 41423,6917.832,95.437,540.587,538.807,0.0
52575.0,STARLINK-3920,PAYLOAD,2023-02-06 16:14:23,15.08869358,0.0001325,53.2173,138.4812,83.2429,276.8714,0.0011243,0.00017665,0.0,0 STARLINK-3920,1 52575U 22051AR  23037.67666233  .00017665  00000-0  11243-2 0  9996,2 52575  53.2173 138.4812 0001325  83.2429 276.8714 15.08869358 41512,6917.791,95.436,540.572,538.739,0.0
52575.0,STARLINK-3920,PAYLOAD,2023-02-07 04:57:28,15.08848626,0.0001247,53.2176,136.1026,102.2724,257.8408,0.00010333,1.357e-05,0.0,0 STARLINK-3920,1 52575U 22051AR  23038.20658192  .00001357  00000-0  10333-3 0  9992,2 52575  53.2176 136.1026 0001247 102.2724 257.8408 15.08848626 41592,6917.854,95.437,540.582,538.856,0.0
52575.0,STARLINK-3920,PAYLOAD,2023-02-07 12:54:23,15.08867738,0.0001268,53.2174,134.6145,105.4474,254.6658,0.00072709,0.00011311,0.0,0 STARLINK-3920,1 52575U 22051AR  23038.53777621  .00011311  00000-0  72709-3 0  9993,2 52575  53.2174 134.6145 0001268 105.4474 254.6658 15.08867738 41648,6917.796,95.436,540.538,538.783,0.0
52575.0,STARLINK-3920,PAYLOAD,2023-02-08 06:23:39,15.08846545,0.0001409,53.2173,131.3431,103.4048,256.7101,0.00077542,0.00012077,0.0,0 STARLINK-3920,1 52575U 22051AR  23039.26642443  .00012077  00000-0  77542-3 0  9997,2 52575  53.2173 131.3431 0001409 103.4048 256.7101 15.08846545 41752,6917.86,95.437,540.7,538.751,0.0
52575.0,STARLINK-3920,PAYLOAD,2023-02-08 11:09:48,15.08829907,7.22e-05,53.2176,130.4522,85.2382,274.8692,0.0017625,0.00027866,0.0,0 STARLINK-3920,1 52575U 22051AR  23039.46514804  .00027866  00000-0  17625-2 0  9995,2 52575  53.2176 130.4522 0000722  85.2382 274.8692 15.08829907 41783,6917.911,95.438,540.276,539.277,0.0
52575.0,STARLINK-3920,PAYLOAD,2023-02-09 06:14:26,15.08863801,6.96e-05,53.2173,126.8834,101.2005,258.9066,0.0024976,0.00039711,0.0,0 STARLINK-3920,1 52575U 22051AR  23040.26003278  .00039711  00000-0  24976-2 0  9992,2 52575  53.2173 126.8834 0000696 101.2005 258.9066 15.08863801 41909,6917.808,95.436,540.154,539.191,0.0
52575.0,STARLINK-3920,PAYLOAD,2023-02-09 11:00:36,15.08856915,8.1e-05,53.2169,125.9925,83.628,276.4804,0.0013623,0.0002147,0.0,0 STARLINK-3920,1 52575U 22051AR  23040.45875097  .00021470  00000-0  13623-2 0  9999,2 52575  53.2169 125.9925 0000810  83.6280 276.4804 15.08856915 41869,6917.829,95.436,540.254,539.133,0.0
52575.0,STARLINK-3920,PAYLOAD,2023-02-09 12:35:59,15.08867083,9.63e-05,53.2171,125.6934,103.1585,256.9514,0.002341,0.00037193,0.0,0 STARLINK-3920,1 52575U 22051AR  23040.52499055  .00037193  00000-0  23410-2 0  9997,2 52575  53.2171 125.6934 0000963 103.1585 256.9514 15.08867083 41942,6917.798,95.436,540.329,538.996,0.0
52575.0,STARLINK-3920,PAYLOAD,2023-02-10 01:19:04,15.08846505,4.4e-05,53.218,123.3157,134.8359,225.2669,0.00074374,0.00011571,0.0,0 STARLINK-3920,1 52575U 22051AR  23041.05491008  .00011571  00000-0  74374-3 0  9994,2 52575  53.2180 123.3157 0000440 134.8359 225.2669 15.08846505 41951,6917.861,95.437,540.03,539.421,0.0
52575.0,STARLINK-3920,PAYLOAD,2023-02-10 10:51:23,15.08846194,6.9e-05,53.2172,121.5333,89.5663,270.5408,0.00027093,4.028e-05,0.0,0 STARLINK-3920,1 52575U 22051AR  23041.45235049  .00004028  00000-0  27093-3 0  9994,2 52575  53.2172 121.5333 0000690  89.5663 270.5408 15.08846194 42082,6917.861,95.437,540.204,539.249,0.0
52575.0,STARLINK-3920,PAYLOAD,2023-02-10 20:23:41,15.08869063,6.84e-05,53.2166,119.7481,111.2445,248.8621,0.00083623,0.00013056,0.0,0 STARLINK-3920,1 52575U 22051AR  23041.84978165  .00013056  00000-0  83623-3 0  9992,2 52575  53.2166 119.7481 0000684 111.2445 248.8621 15.08869063 42076,6917.792,95.436,540.13,539.183,0.0
52575.0,STARLINK-3920,PAYLOAD,2023-02-10 23:34:28,15.08823601,0.0001117,53.2159,119.1524,98.0088,262.1031,-0.00041057,-6.813e-05,0.0,0 STARLINK-3920,1 52575U 22051AR  23041.98227089 -.00006813  00000-0 -41057-3 0  9999,2 52575  53.2159 119.1524 0001117  98.0088 262.1031 15.08823601 42169,6917.931,95.439,540.568,539.023,0.0
